NORAD_CAT_ID,OBJECT_NAME,OBJECT_TYPE,EPOCH,MEAN_MOTION,ECCENTRICITY,INCLINATION,RA_OF_ASC_NODE,ARG_OF_PERICENTER,MEAN_ANOMALY,BSTAR,MEAN_MOTION_DOT,MEAN_MOTION_DDOT,TLE_LINE0,TLE_LINE1,TLE_LINE2,SEMIMAJOR_AXIS,PERIOD,APOGEE,PERIGEE,DECAYED
51870.0,STARLINK-3591,PAYLOAD,2022-03-17 14:00:01,15.73217808,0.0001437,53.2178,74.9786,54.7854,4.2084,-0.0003213,-0.00045504,0.0,0 STARLINK-3591,1 51870U 22022U   22076.58334491 -.00045504  00000-0 -32130-3 0  9995,2 51870  53.2178  74.9786 0001437  54.7854   4.2084 15.73217808  2886,6727.844,91.532,350.676,348.74300000000005,0.0
51870.0,STARLINK-3591,PAYLOAD,2022-03-17 22:00:00,15.73174784,0.0001378,53.218,73.3275,68.9462,78.9798,0.00061265,0.00086154,0.0,0 STARLINK-3591,1 51870U 22022U   22076.91667824  .00086154  00000-0  61265-3 0  9996,2 51870  53.2180  73.3275 0001378  68.9462  78.9798 15.73174784  2932,6727.967,91.535,350.759,348.905,0.0
51870.0,STARLINK-3591,PAYLOAD,2022-03-18 08:00:01,15.73252249,0.0001426999999999,53.2185,71.2679,59.2926,289.8094,-0.00024643,-0.00035138,0.0,0 STARLINK-3591,1 51870U 22022U   22077.33334491 -.00035138  00000-0 -24643-3 0  9991,2 51870  53.2185  71.2679 0001427  59.2926 289.8094 15.73252249  3582,6727.746,91.53,350.571,348.651,0.0
51870.0,STARLINK-3591,PAYLOAD,2022-03-18 14:00:01,15.7322754,0.0001319,53.2185,70.03,57.1911,268.6494,-3.1247e-07,-6.64e-06,0.0,0 STARLINK-3591,1 51870U 22022U   22077.58334491 -.00000664  00000-0 -31247-6 0  9995,2 51870  53.2185  70.0300 0001319  57.1911 268.6494 15.73227540  3047,6727.816999999999,91.532,350.569,348.7940000000001,0.0
51870.0,STARLINK-3591,PAYLOAD,2022-03-18 22:00:00,15.73247672,0.0001337,53.2189,68.3787,67.1517,347.6476,-0.00020178,-0.00028899,0.0,0 STARLINK-3591,1 51870U 22022U   22077.91667824 -.00028899  00000-0 -20178-3 0  9999,2 51870  53.2189  68.3787 0001337  67.1517 347.6476 15.73247672  3678,6727.759,91.53,350.524,348.725,0.0
51870.0,STARLINK-3591,PAYLOAD,2022-03-19 14:00:01,15.73211636,0.0001375999999999,53.2185,65.0811,60.7697,171.9343,-0.00020698,-0.00029581,0.0,0 STARLINK-3591,1 51870U 22022U   22078.58334491 -.00029581  00000-0 -20698-3 0  9990,2 51870  53.2185  65.0811 0001376  60.7697 171.9343 15.73211636  3196,6727.861999999999,91.533,350.653,348.801,0.0
51870.0,STARLINK-3591,PAYLOAD,2022-03-19 22:00:01,15.72735992,0.000177,53.2173,63.4229,73.1808,248.6296,0.0047396,0.00709788,0.0,0 STARLINK-3591,1 51870U 22022U   22078.91668981  .00709788  00000-0  47396-2 0  9996,2 51870  53.2173  63.4229 0001770  73.1808 248.6296 15.72735992  3833,6729.218000000003,91.56,352.274,349.892,0.0
51870.0,STARLINK-3591,PAYLOAD,2022-03-20 14:00:01,15.73244554,0.0001127,53.2194,60.1327,58.8779,80.7022,-8.411100000000001e-05,-0.00012429,0.0,0 STARLINK-3591,1 51870U 22022U   22079.58334491 -.00012429  00000-0 -84111-4 0  9995,2 51870  53.2194  60.1327 0001127  58.8779  80.7022 15.73244554  3351,6727.768,91.531,350.391,348.875,0.0
51870.0,STARLINK-3591,PAYLOAD,2022-03-20 22:00:01,15.73229839,0.0001178,53.2198,58.4817,71.7034,156.9301,0.00014601,0.00019946,0.0,0 STARLINK-3591,1 51870U 22022U   22079.91668981  .00019946  00000-0  14601-3 0  9991,2 51870  53.2198  58.4817 0001178  71.7034 156.9301 15.73229839  3415,6727.81,91.531,350.468,348.8830000000001,0.0
51870.0,STARLINK-3591,PAYLOAD,2022-03-21 06:00:00,15.73221863,0.0001337,53.2199,56.8345,61.8115,255.7142,-0.00040327,-0.00056887,0.0,0 STARLINK-3591,1 51870U 22022U   22080.25001157 -.00056887  00000-0 -40327-3 0  9997,2 51870  53.2199  56.8345 0001337  61.8115 255.7142 15.73221863  4041,6727.833000000001,91.532,350.597,348.798,0.0
51870.0,STARLINK-3591,PAYLOAD,2022-03-21 14:00:01,15.73210175,0.0001182,53.2195,55.1843,62.8964,343.5601,-0.00084897,-0.00118157,0.0,0 STARLINK-3591,1 51870U 22022U   22080.58334491 -.00118157  00000-0 -84897-3 0  9992,2 51870  53.2195  55.1843 0001182  62.8964 343.5601 15.73210175  3514,6727.866,91.533,350.526,348.936,0.0
51870.0,STARLINK-3591,PAYLOAD,2022-03-21 22:00:00,15.73113476,0.000108,53.2193,53.534,75.0216,60.3215,0.00047716,0.0006663,0.0,0 STARLINK-3591,1 51870U 22022U   22080.91667824  .00066630  00000-0  47716-3 0  9993,2 51870  53.2193  53.5340 0001080  75.0216  60.3215 15.73113476  3576,6728.142,91.538,350.7340000000001,349.28,0.0
51870.0,STARLINK-3591,PAYLOAD,2022-03-22 04:00:00,15.73148788,0.0001132,53.2187,52.299,64.2742,47.699,0.00013361,0.00018131,0.0,0 STARLINK-3591,1 51870U 22022U   22081.16667824  .00018131  00000-0  13361-3 0  9993,2 51870  53.2187  52.2990 0001132  64.2742  47.6990 15.73148788  4188,6728.041,91.536,350.668,349.145,0.0
51870.0,STARLINK-3591,PAYLOAD,2022-03-22 14:00:01,15.73204648,0.0001072,53.2179,50.2367,65.7219,247.3561,0.00010484,0.00014121,0.0,0 STARLINK-3591,1 51870U 22022U   22081.58334491  .00014121  00000-0  10484-3 0  9998,2 51870  53.2179  50.2367 0001072  65.7219 247.3561 15.73204648  4252,6727.882,91.533,350.468,349.026,0.0
51870.0,STARLINK-3591,PAYLOAD,2022-03-22 22:00:01,15.73238017,0.0001064,53.2184,48.5861,74.0402,328.0375,0.00023211,0.00032132,0.0,0 STARLINK-3591,1 51870U 22022U   22081.91668981  .00032132  00000-0  23211-3 0  9993,2 51870  53.2184  48.5861 0001064  74.0402 328.0375 15.73238017  3723,6727.7869999999975,91.531,350.36800000000005,348.936,0.0
51870.0,STARLINK-3591,PAYLOAD,2022-03-23 14:00:01,15.73236736,0.0001107,53.218,45.2881,66.7646,153.2145,-0.0002357,-0.00033618,0.0,0 STARLINK-3591,1 51870U 22022U   22082.58334491 -.00033618  00000-0 -23570-3 0  9993,2 51870  53.2180  45.2881 0001107  66.7646 153.2145 15.73236736  3719,6727.79,91.531,350.4,348.911,0.0
51870.0,STARLINK-3591,PAYLOAD,2022-03-23 20:00:01,15.73222033,0.0001203,53.2179,44.05,79.7357,116.9544,-0.00013949,-0.00020168,0.0,0 STARLINK-3591,1 51870U 22022U   22082.83334491 -.00020168  00000-0 -13949-3 0  9996,2 51870  53.2179  44.0500 0001203  79.7357 116.9544 15.73222033  4458,6727.831999999999,91.532,350.50699999999995,348.88800000000015,0.0
51870.0,STARLINK-3591,PAYLOAD,2022-03-23 22:00:00,15.73220798,0.0001242,53.2181,43.63800000000001,80.8745,228.0517,-0.0001168,-0.00016993,0.0,0 STARLINK-3591,1 51870U 22022U   22082.91667824 -.00016993  00000-0 -11680-3 0  9995,2 51870  53.2181  43.6380 0001242  80.8745 228.0517 15.73220798  3718,6727.8359999999975,91.532,350.536,348.865,0.0
51870.0,STARLINK-3591,PAYLOAD,2022-03-24 14:00:01,15.73198244,0.0001134,53.2182,40.3398,74.7458,52.041,4.4434e-05,5.62e-05,0.0,0 STARLINK-3591,1 51870U 22022U   22083.58334491  .00005620  00000-0  44434-4 0  9997,2 51870  53.2182  40.3398 0001134  74.7458  52.0410 15.73198244  3699,6727.9,91.533,350.528,349.00199999999984,0.0
51870.0,STARLINK-3591,PAYLOAD,2022-03-24 22:00:00,15.73192701,0.0001294,53.2186,38.6897,81.7663,133.9437,4.1174e-05,5.16e-05,0.0,0 STARLINK-3591,1 51870U 22022U   22083.91667824  .00005160  00000-0  41174-4 0  9990,2 51870  53.2186  38.6897 0001294  81.7663 133.9437 15.73192701  4624,6727.916,91.534,350.652,348.91,0.0
51870.0,STARLINK-3591,PAYLOAD,2022-03-25 14:00:01,15.7320459,0.000116,53.2181,35.3912,80.0763,313.4895,-5.6995e-05,-8.612e-05,0.0,0 STARLINK-3591,1 51870U 22022U   22084.58334491 -.00008612  00000-0 -56995-4 0  9999,2 51870  53.2181  35.3912 0001160  80.0763 313.4895 15.73204590  3695,6727.882,91.533,350.528,348.967,0.0
51870.0,STARLINK-3591,PAYLOAD,2022-03-25 22:00:01,15.73244992,0.0001246,53.2183,33.7415,83.9578,38.5933,-0.00047191,-0.00066455,0.0,0 STARLINK-3591,1 51870U 22022U   22084.91668981 -.00066455  00000-0 -47191-3 0  9996,2 51870  53.2183  33.7415 0001246  83.9578  38.5933 15.73244992  3742,6727.767,91.531,350.47,348.7940000000001,0.0
51870.0,STARLINK-3591,PAYLOAD,2022-03-26 06:00:00,15.73177712,0.0001309,53.2182,32.094,74.9822,136.4586,0.00054556,0.00076573,0.0,0 STARLINK-3591,1 51870U 22022U   22085.25001157  .00076573  00000-0  54556-3 0  9993,2 51870  53.2182  32.0940 0001309  74.9822 136.4586 15.73177712  4836,6727.959,91.534,350.704,348.9430000000001,0.0
51870.0,STARLINK-3591,PAYLOAD,2022-03-26 12:00:00,15.73256995,0.0001153,53.218,30.8557,78.7272,109.4024,-0.00063643,-0.00089212,0.0,0 STARLINK-3591,1 51870U 22022U   22085.50001157 -.00089212  00000-0 -63643-3 0  9994,2 51870  53.2180  30.8557 0001153  78.7272 109.4024 15.73256995  4874,6727.733,91.53,350.37300000000016,348.82199999999995,0.0
51870.0,STARLINK-3591,PAYLOAD,2022-03-26 14:00:01,15.73206564,0.0001113,53.2183,30.4427,83.0617,217.3062,-0.00017216,-0.00024716,0.0,0 STARLINK-3591,1 51870U 22022U   22085.58334491 -.00024716  00000-0 -17216-3 0  9995,2 51870  53.2183  30.4427 0001113  83.0617 217.3062 15.73206564  3683,6727.876,91.533,350.49,348.99300000000005,0.0
51870.0,STARLINK-3591,PAYLOAD,2022-03-26 22:00:00,15.73236438,0.000101,53.2186,28.79300000000001,84.4239,304.8477,-0.00031302,-0.00044385,0.0,0 STARLINK-3591,1 51870U 22022U   22085.91667824 -.00044385  00000-0 -31302-3 0  9997,2 51870  53.2186  28.7930 0001010  84.4239 304.8477 15.73236438  3704,6727.791,91.531,350.336,348.977,0.0
51870.0,STARLINK-3591,PAYLOAD,2022-03-27 06:00:00,15.73172657,9.87e-05,53.2186,27.1454,69.7244,48.5121,0.00019957,0.00027447,0.0,0 STARLINK-3591,1 51870U 22022U   22086.25001157  .00027447  00000-0  19957-3 0  9996,2 51870  53.2186  27.1454 0000987  69.7244  48.5121 15.73172657  4983,6727.973000000001,91.535,350.50199999999984,349.1740000000001,0.0
51870.0,STARLINK-3591,PAYLOAD,2022-03-27 14:00:01,15.73169248,9.72e-05,53.2184,25.494,82.1697,124.9952,0.00025717,0.00035577,0.0,0 STARLINK-3591,1 51870U 22022U   22086.58334491  .00035577  00000-0  25717-3 0  9996,2 51870  53.2184  25.4940 0000972  82.1697 124.9952 15.73169248  3710,6727.983,91.535,350.50199999999984,349.194,0.0
51870.0,STARLINK-3591,PAYLOAD,2022-03-27 22:00:01,15.73073395,8.1e-05,53.2174,23.8332,74.3809,221.632,0.0015242,0.00217746,0.0,0 STARLINK-3591,1 51870U 22022U   22086.91668981  .00217746  00000-0  15242-2 0  9998,2 51870  53.2174  23.8332 0000810  74.3809 221.6320 15.73073395  5099,6728.255999999999,91.541,350.666,349.576,0.0
